{
  "type": "FeatureCollection",
  "features": [
    {
      "type": "Feature",
      "properties": {
        "norad_id": 30564,
        "name": "FENGYUN 1C DEB",
        "group": "fengyun-1c-debris",
        "lat": -4.199327556543386,
        "lon": 178.36102601630046,
        "alt_km": 816.5364663037053,
        "timestamp": "2025-12-13T05:42:57.836598+00:00",
        "meta_object_name": "FENGYUN 1C DEB",
        "meta_object_id": "1999-025ALE",
        "meta_epoch": "2025-12-12T06:44:03.020064",
        "meta_mean_motion": 14.05747724,
        "meta_eccentricity": 0.02030089,
        "meta_inclination": 98.796,
        "meta_ra_of_asc_node": 358.0822,
        "meta_arg_of_pericenter": 120.1589,
        "meta_mean_anomaly": 258.5217,
        "meta_ephemeris_type": 0,
        "meta_classification_type": "U",
        "meta_norad_cat_id": 30564,
        "meta_element_set_no": 999,
        "meta_rev_at_epoch": 96289,
        "meta_bstar": 0.00087037703,
        "meta_mean_motion_dot": 1.669e-05,
        "meta_mean_motion_ddot": 0,
        "tle_line1": "1 30564U 99025ALE 25346.28059051  .00001669  00000+0  87038-3 0  9993",
        "tle_line2": "2 30564  98.7960 358.0822 0203008 120.1589 258.5217 14.05747724962891"
      },
      "geometry": {
        "type": "Point",
        "coordinates": [
          178.36102601630046,
          -4.199327556543386
        ]
      }
    },
    {
      "type": "Feature",
      "properties": {
        "norad_id": 30565,
        "name": "FENGYUN 1C DEB",
        "group": "fengyun-1c-debris",
        "lat": -15.886726504447518,
        "lon": -140.1417938559271,
        "alt_km": 762.5231053356365,
        "timestamp": "2025-12-13T05:42:57.836609+00:00",
        "meta_object_name": "FENGYUN 1C DEB",
        "meta_object_id": "1999-025ALF",
        "meta_epoch": "2025-12-11T14:44:54.807936",
        "meta_mean_motion": 14.09924121,
        "meta_eccentricity": 0.01430725,
        "meta_inclination": 98.4536,
        "meta_ra_of_asc_node": 215.9062,
        "meta_arg_of_pericenter": 359.4662,
        "meta_mean_anomaly": 28.2899,
        "meta_ephemeris_type": 0,
        "meta_classification_type": "U",
        "meta_norad_cat_id": 30565,
        "meta_element_set_no": 999,
        "meta_rev_at_epoch": 95911,
        "meta_bstar": 0.0026846315,
        "meta_mean_motion_dot": 5.163e-05,
        "meta_mean_motion_ddot": 0,
        "tle_line1": "1 30565U 99025ALF 25345.61452324  .00005163  00000+0  26846-2 0  9992",
        "tle_line2": "2 30565  98.4536 215.9062 0143072 359.4662  28.2899 14.09924121959119"
      },
      "geometry": {
        "type": "Point",
        "coordinates": [
          -140.1417938559271,
          -15.886726504447518
        ]
      }
    },
    {
      "type": "Feature",
      "properties": {
        "norad_id": 30566,
        "name": "FENGYUN 1C DEB",
        "group": "fengyun-1c-debris",
        "lat": -69.56631472978138,
        "lon": 61.62814337552138,
        "alt_km": 875.4835066907754,
        "timestamp": "2025-12-13T05:42:57.836620+00:00",
        "meta_object_name": "FENGYUN 1C DEB",
        "meta_object_id": "1999-025ALG",
        "meta_epoch": "2025-12-12T02:57:56.037600",
        "meta_mean_motion": 14.11682653,
        "meta_eccentricity": 0.00683997,
        "meta_inclination": 99.2173,
        "meta_ra_of_asc_node": 34.6452,
        "meta_arg_of_pericenter": 183.8562,
        "meta_mean_anomaly": 202.3691,
        "meta_ephemeris_type": 0,
        "meta_classification_type": "U",
        "meta_norad_cat_id": 30566,
        "meta_element_set_no": 999,
        "meta_rev_at_epoch": 96374,
        "meta_bstar": 0.0019898178,
        "meta_mean_motion_dot": 3.656e-05,
        "meta_mean_motion_ddot": 0,
        "tle_line1": "1 30566U 99025ALG 25346.12356525  .00003656  00000+0  19898-2 0  9990",
        "tle_line2": "2 30566  99.2173  34.6452 0068399 183.8562 202.3691 14.11682653963744"
      },
      "geometry": {
        "type": "Point",
        "coordinates": [
          61.62814337552138,
          -69.56631472978138
        ]
      }
    },
    {
      "type": "Feature",
      "properties": {
        "norad_id": 30567,
        "name": "FENGYUN 1C DEB",
        "group": "fengyun-1c-debris",
        "lat": -59.71327066775541,
        "lon": 142.57581887063495,
        "alt_km": 822.2377180727171,
        "timestamp": "2025-12-13T05:42:57.836630+00:00",
        "meta_object_name": "FENGYUN 1C DEB",
        "meta_object_id": "1999-025ALH",
        "meta_epoch": "2025-12-11T12:16:31.192032",
        "meta_mean_motion": 14.08896843,
        "meta_eccentricity": 0.01086834,
        "meta_inclination": 98.7757,
        "meta_ra_of_asc_node": 336.231,
        "meta_arg_of_pericenter": 192.7857,
        "meta_mean_anomaly": 294.0689,
        "meta_ephemeris_type": 0,
        "meta_classification_type": "U",
        "meta_norad_cat_id": 30567,
        "meta_element_set_no": 999,
        "meta_rev_at_epoch": 96756,
        "meta_bstar": 0.00047377821,
        "meta_mean_motion_dot": 8.22e-06,
        "meta_mean_motion_ddot": 0,
        "tle_line1": "1 30567U 99025ALH 25345.51147213  .00000822  00000+0  47378-3 0  9992",
        "tle_line2": "2 30567  98.7757 336.2310 0108683 192.7857 294.0689 14.08896843967561"
      },
      "geometry": {
        "type": "Point",
        "coordinates": [
          142.57581887063495,
          -59.71327066775541
        ]
      }
    },
    {
      "type": "Feature",
      "properties": {
        "norad_id": 30568,
        "name": "FENGYUN 1C DEB",
        "group": "fengyun-1c-debris",
        "lat": -25.85604218527563,
        "lon": -26.92079667932687,
        "alt_km": 703.1213788220657,
        "timestamp": "2025-12-13T05:42:57.836640+00:00",
        "meta_object_name": "FENGYUN 1C DEB",
        "meta_object_id": "1999-025ALJ",
        "meta_epoch": "2025-12-11T23:38:22.434432",
        "meta_mean_motion": 14.5512299,
        "meta_eccentricity": 0.0016416,
        "meta_inclination": 98.9428,
        "meta_ra_of_asc_node": 156.1156,
        "meta_arg_of_pericenter": 196.3013,
        "meta_mean_anomaly": 288.672,
        "meta_ephemeris_type": 0,
        "meta_classification_type": "U",
        "meta_norad_cat_id": 30568,
        "meta_element_set_no": 999,
        "meta_rev_at_epoch": 97648,
        "meta_bstar": 0.0046202,
        "meta_mean_motion_dot": 0.0001999,
        "meta_mean_motion_ddot": 0,
        "tle_line1": "1 30568U 99025ALJ 25345.98498188  .00019990  00000+0  46202-2 0  9994",
        "tle_line2": "2 30568  98.9428 156.1156 0016416 196.3013 288.6720 14.55122990976485"
      },
      "geometry": {
        "type": "Point",
        "coordinates": [
          -26.92079667932687,
          -25.85604218527563
        ]
      }
    },
    {
      "type": "Feature",
      "properties": {
        "norad_id": 30569,
        "name": "FENGYUN 1C DEB",
        "group": "fengyun-1c-debris",
        "lat": -66.53487457260384,
        "lon": -74.496204767908,
        "alt_km": 660.4281210700137,
        "timestamp": "2025-12-13T05:42:57.836652+00:00",
        "meta_object_name": "FENGYUN 1C DEB",
        "meta_object_id": "1999-025ALK",
        "meta_epoch": "2025-12-12T07:24:36.035424",
        "meta_mean_motion": 14.73647059,
        "meta_eccentricity": 0.00059583,
        "meta_inclination": 98.7363,
        "meta_ra_of_asc_node": 125.2506,
        "meta_arg_of_pericenter": 89.9565,
        "meta_mean_anomaly": 270.2324,
        "meta_ephemeris_type": 0,
        "meta_classification_type": "U",
        "meta_norad_cat_id": 30569,
        "meta_element_set_no": 999,
        "meta_rev_at_epoch": 98200,
        "meta_bstar": 0.0052582603,
        "meta_mean_motion_dot": 0.00034401,
        "meta_mean_motion_ddot": 0,
        "tle_line1": "1 30569U 99025ALK 25346.30875041  .00034401  00000+0  52583-2 0  9992",
        "tle_line2": "2 30569  98.7363 125.2506 0005958  89.9565 270.2324 14.73647059982006"
      },
      "geometry": {
        "type": "Point",
        "coordinates": [
          -74.496204767908,
          -66.53487457260384
        ]
      }
    },
    {
      "type": "Feature",
      "properties": {
        "norad_id": 30570,
        "name": "FENGYUN 1C DEB",
        "group": "fengyun-1c-debris",
        "lat": 16.640735317506792,
        "lon": 17.11858281455879,
        "alt_km": 870.0517131489469,
        "timestamp": "2025-12-13T05:42:57.836663+00:00",
        "meta_object_name": "FENGYUN 1C DEB",
        "meta_object_id": "1999-025ALL",
        "meta_epoch": "2025-12-12T01:03:23.846400",
        "meta_mean_motion": 14.14266508,
        "meta_eccentricity": 0.0035235,
        "meta_inclination": 98.7152,
        "meta_ra_of_asc_node": 18.5815,
        "meta_arg_of_pericenter": 213.9216,
        "meta_mean_anomaly": 206.5203,
        "meta_ephemeris_type": 0,
        "meta_classification_type": "U",
        "meta_norad_cat_id": 30570,
        "meta_element_set_no": 999,
        "meta_rev_at_epoch": 96988,
        "meta_bstar": 0.0006734,
        "meta_mean_motion_dot": 1.25e-05,
        "meta_mean_motion_ddot": 0,
        "tle_line1": "1 30570U 99025ALL 25346.04402600  .00001250  00000+0  67340-3 0  9996",
        "tle_line2": "2 30570  98.7152  18.5815 0035235 213.9216 206.5203 14.14266508969884"
      },
      "geometry": {
        "type": "Point",
        "coordinates": [
          17.11858281455879,
          16.640735317506792
        ]
      }
    }
  ]
}